ARIANE 3 DEB            
1 27648U 84081F   26062.40354559 -.00000354  00000+0 -20396-1 0  9993
2 27648   5.3483  63.7471 7160845 148.5084 288.3646  2.10230488204259
USA 167                 
1 27691U 03008A   26062.56228726 -.00000005  00000+0  00000+0 0  9994
2 27691  10.7526  44.3412 0005910 289.5754 268.0856  1.00271109  5710
IABS R/B                
1 27693U 03008C   26060.75190772 -.00000271  00000+0  00000+0 0  9999
2 27693  13.4046  11.1367 0028648 226.4659 133.3171  1.01121458 25535
USA 169 (MILSTAR-2 4)   
1 27711U 03012A   26062.75910830 -.00000275  00000+0  00000+0 0  9996
2 27711  12.1903  30.6845 0100396   3.4940 192.7723  1.00272637 31891
TITAN 4 CENTAUR R/B     
1 27712U 03012B   26062.11083662  .00000073  00000+0  00000+0 0  9996
2 27712  11.0335  23.9168 0024740 276.3419  83.4186  1.00575636 24720
INSAT-3A                
1 27714U 03013A   26062.41795726 -.00000335  00000+0  00000+0 0  9995
2 27714   8.5766  62.1534 0010911 302.5226  88.0772  0.99810973 83670
ARIANE 5 R/B            
1 27716U 03013C   26062.79299516 -.00000063  00000+0  27358-2 0  9990
2 27716   1.4382 275.2176 7069438 316.3105 171.3123  2.24036896187474
ARIANE 5 DEB [SYLDA]    
1 27717U 03013D   26062.66637449 -.00000205  00000+0 -19660-3 0  9995
2 27717   1.8916 287.9457 7076285 277.2500 318.2931  2.22472146186171
ASIASAT 4               
1 27718U 03014A   26062.47305480 -.00000235  00000+0  00000+0 0  9999
2 27718   4.4338  77.0787 0002670 268.6674 133.3279  1.00269685 44248
ARIANE 1 DEB            
1 27732U 79104S   26061.21401203 -.00000378  00000+0  62608-2 0  9992
2 27732  16.4938  32.2627 7311150 136.0420 313.6024  1.93138620 83979
COSMOS 2397             
1 27775U 03015A   26062.49095335 -.00000041  00000+0  00000+0 0  9995
2 27775  12.5838  20.8289 0042941   5.7600 189.3237  1.00486670 83853
SL-12 R/B(2)            
1 27780U 03015F   26062.72544753 -.00000352  00000+0  00000+0 0  9995
2 27780  12.6319  21.1593 0009870  31.9666 140.5277  1.00287183 83449
ATLAS AGENA R/B         
1 27785U 68063B   26062.03667337 -.00000371  00000+0  00000+0 0  9993
2 27785   4.6551 267.1283 1016802 263.4894  84.5110  1.01777746 25304
ATLAS AGENA R/B         
1 27786U 69036B   26062.11308511 -.00000085  00000+0  00000+0 0  9992
2 27786  14.2630  27.5985 1061968 246.4395 102.1180  1.03852443 25716
ATLAS AGENA R/B         
1 27787U 70069B   26060.94435492  .00000025  00000+0  00000+0 0  9992
2 27787  11.5057 137.7494 1201201 186.3036 172.0344  1.01705055 25924
COSMOS 1261 DEB         
1 27796U 81031H   26061.86148685 -.00000733  00000+0  00000+0 0  9997
2 27796  65.4912   6.2565 6947469  18.2956 357.3446  2.01784376183721
COSMOS 1285 DEB         
1 27800U 81071P   26060.27146312 -.00000147  00000+0  00000+0 0  9995
2 27800  64.3836  79.8366 7117719  35.3802 355.7725  1.97646597191270
