[{"OBJECT_NAME":"ARIANE 3 DEB","OBJECT_ID":"1984-081F","EPOCH":"2026-03-03T09:41:06.338976","MEAN_MOTION":2.10230488,"ECCENTRICITY":0.71608452,"INCLINATION":5.3483,"RA_OF_ASC_NODE":63.7471,"ARG_OF_PERICENTER":148.5084,"MEAN_ANOMALY":288.3646,"EPHEMERIS_TYPE":0,"CLASSIFICATION_TYPE":"U","NORAD_CAT_ID":27648,"ELEMENT_SET_NO":999,"REV_AT_EPOCH":20425,"BSTAR":-0.020396316,"MEAN_MOTION_DOT":-3.54e-6,"MEAN_MOTION_DDOT":0},{"OBJECT_NAME":"USA 167","OBJECT_ID":"2003-008A","EPOCH":"2026-03-03T13:29:41.619264","MEAN_MOTION":1.00271109,"ECCENTRICITY":0.000591,"INCLINATION":10.7526,"RA_OF_ASC_NODE":44.3412,"ARG_OF_PERICENTER":289.5754,"MEAN_ANOMALY":268.0856,"EPHEMERIS_TYPE":0,"CLASSIFICATION_TYPE":"U","NORAD_CAT_ID":27691,"ELEMENT_SET_NO":999,"REV_AT_EPOCH":571,"BSTAR":0,"MEAN_MOTION_DOT":-5.0e-8,"MEAN_MOTION_DDOT":0},{"OBJECT_NAME":"IABS R/B","OBJECT_ID":"2003-008C","EPOCH":"2026-03-01T18:02:44.827008","MEAN_MOTION":1.01121458,"ECCENTRICITY":0.0028648,"INCLINATION":13.4046,"RA_OF_ASC_NODE":11.1367,"ARG_OF_PERICENTER":226.4659,"MEAN_ANOMALY":133.3171,"EPHEMERIS_TYPE":0,"CLASSIFICATION_TYPE":"U","NORAD_CAT_ID":27693,"ELEMENT_SET_NO":999,"REV_AT_EPOCH":2553,"BSTAR":0,"MEAN_MOTION_DOT":-2.71e-6,"MEAN_MOTION_DDOT":0},{"OBJECT_NAME":"USA 169 (MILSTAR-2 4)","OBJECT_ID":"2003-012A","EPOCH":"2026-03-03T18:13:06.957120","MEAN_MOTION":1.00272637,"ECCENTRICITY":0.0100396,"INCLINATION":12.1903,"RA_OF_ASC_NODE":30.6845,"ARG_OF_PERICENTER":3.494,"MEAN_ANOMALY":192.7723,"EPHEMERIS_TYPE":0,"CLASSIFICATION_TYPE":"U","NORAD_CAT_ID":27711,"ELEMENT_SET_NO":999,"REV_AT_EPOCH":3189,"BSTAR":0,"MEAN_MOTION_DOT":-2.75e-6,"MEAN_MOTION_DDOT":0},{"OBJECT_NAME":"TITAN 4 CENTAUR R/B","OBJECT_ID":"2003-012B","EPOCH":"2026-03-03T02:39:36.283968","MEAN_MOTION":1.00575636,"ECCENTRICITY":0.002474,"INCLINATION":11.0335,"RA_OF_ASC_NODE":23.9168,"ARG_OF_PERICENTER":276.3419,"MEAN_ANOMALY":83.4186,"EPHEMERIS_TYPE":0,"CLASSIFICATION_TYPE":"U","NORAD_CAT_ID":27712,"ELEMENT_SET_NO":999,"REV_AT_EPOCH":2472,"BSTAR":0,"MEAN_MOTION_DOT":7.3e-7,"MEAN_MOTION_DDOT":0},{"OBJECT_NAME":"INSAT-3A","OBJECT_ID":"2003-013A","EPOCH":"2026-03-03T10:01:51.507264","MEAN_MOTION":0.99810973,"ECCENTRICITY":0.00109111,"INCLINATION":8.5766,"RA_OF_ASC_NODE":62.1534,"ARG_OF_PERICENTER":302.5226,"MEAN_ANOMALY":88.0772,"EPHEMERIS_TYPE":0,"CLASSIFICATION_TYPE":"U","NORAD_CAT_ID":27714,"ELEMENT_SET_NO":999,"REV_AT_EPOCH":8367,"BSTAR":0,"MEAN_MOTION_DOT":-3.35e-6,"MEAN_MOTION_DDOT":0},{"OBJECT_NAME":"ARIANE 5 R/B","OBJECT_ID":"2003-013C","EPOCH":"2026-03-03T19:01:54.781824","MEAN_MOTION":2.24036896,"ECCENTRICITY":0.7069438,"INCLINATION":1.4382,"RA_OF_ASC_NODE":275.2176,"ARG_OF_PERICENTER":316.3105,"MEAN_ANOMALY":171.3123,"EPHEMERIS_TYPE":0,"CLASSIFICATION_TYPE":"U","NORAD_CAT_ID":27716,"ELEMENT_SET_NO":999,"REV_AT_EPOCH":18747,"BSTAR":0.0027358,"MEAN_MOTION_DOT":-6.3e-7,"MEAN_MOTION_DDOT":0},{"OBJECT_NAME":"ARIANE 5 DEB [SYLDA]","OBJECT_ID":"2003-013D","EPOCH":"2026-03-03T15:59:34.755936","MEAN_MOTION":2.22472146,"ECCENTRICITY":0.7076285,"INCLINATION":1.8916,"RA_OF_ASC_NODE":287.9457,"ARG_OF_PERICENTER":277.25,"MEAN_ANOMALY":318.2931,"EPHEMERIS_TYPE":0,"CLASSIFICATION_TYPE":"U","NORAD_CAT_ID":27717,"ELEMENT_SET_NO":999,"REV_AT_EPOCH":18617,"BSTAR":-0.0001966,"MEAN_MOTION_DOT":-2.05e-6,"MEAN_MOTION_DDOT":0},{"OBJECT_NAME":"ASIASAT 4","OBJECT_ID":"2003-014A","EPOCH":"2026-03-03T11:21:11.934720","MEAN_MOTION":1.00269685,"ECCENTRICITY":0.00026701,"INCLINATION":4.4338,"RA_OF_ASC_NODE":77.0787,"ARG_OF_PERICENTER":268.6674,"MEAN_ANOMALY":133.3279,"EPHEMERIS_TYPE":0,"CLASSIFICATION_TYPE":"U","NORAD_CAT_ID":27718,"ELEMENT_SET_NO":999,"REV_AT_EPOCH":4424,"BSTAR":0,"MEAN_MOTION_DOT":-2.35e-6,"MEAN_MOTION_DDOT":0},{"OBJECT_NAME":"ARIANE 1 DEB","OBJECT_ID":"1979-104S","EPOCH":"2026-03-02T05:08:10.639392","MEAN_MOTION":1.9313862,"ECCENTRICITY":0.73111503,"INCLINATION":16.4938,"RA_OF_ASC_NODE":32.2627,"ARG_OF_PERICENTER":136.042,"MEAN_ANOMALY":313.6024,"EPHEMERIS_TYPE":0,"CLASSIFICATION_TYPE":"U","NORAD_CAT_ID":27732,"ELEMENT_SET_NO":999,"REV_AT_EPOCH":8397,"BSTAR":0.0062607852,"MEAN_MOTION_DOT":-3.78e-6,"MEAN_MOTION_DDOT":0},{"OBJECT_NAME":"COSMOS 2397","OBJECT_ID":"2003-015A","EPOCH":"2026-03-03T11:46:58.369440","MEAN_MOTION":1.0048667,"ECCENTRICITY":0.0042941,"INCLINATION":12.5838,"RA_OF_ASC_NODE":20.8289,"ARG_OF_PERICENTER":5.76,"MEAN_ANOMALY":189.3237,"EPHEMERIS_TYPE":0,"CLASSIFICATION_TYPE":"U","NORAD_CAT_ID":27775,"ELEMENT_SET_NO":999,"REV_AT_EPOCH":8385,"BSTAR":0,"MEAN_MOTION_DOT":-4.1e-7,"MEAN_MOTION_DDOT":0},{"OBJECT_NAME":"SL-12 R/B(2)","OBJECT_ID":"2003-015F","EPOCH":"2026-03-03T17:24:38.666592","MEAN_MOTION":1.00287183,"ECCENTRICITY":0.000987,"INCLINATION":12.6319,"RA_OF_ASC_NODE":21.1593,"ARG_OF_PERICENTER":31.9666,"MEAN_ANOMALY":140.5277,"EPHEMERIS_TYPE":0,"CLASSIFICATION_TYPE":"U","NORAD_CAT_ID":27780,"ELEMENT_SET_NO":999,"REV_AT_EPOCH":8344,"BSTAR":0,"MEAN_MOTION_DOT":-3.52e-6,"MEAN_MOTION_DDOT":0},{"OBJECT_NAME":"ATLAS AGENA R/B","OBJECT_ID":"1968-063B","EPOCH":"2026-03-03T00:52:48.579168","MEAN_MOTION":1.01777746,"ECCENTRICITY":0.1016802,"INCLINATION":4.6551,"RA_OF_ASC_NODE":267.1283,"ARG_OF_PERICENTER":263.4894,"MEAN_ANOMALY":84.511,"EPHEMERIS_TYPE":0,"CLASSIFICATION_TYPE":"U","NORAD_CAT_ID":27785,"ELEMENT_SET_NO":999,"REV_AT_EPOCH":2530,"BSTAR":0,"MEAN_MOTION_DOT":-3.71e-6,"MEAN_MOTION_DDOT":0},{"OBJECT_NAME":"ATLAS AGENA R/B","OBJECT_ID":"1969-036B","EPOCH":"2026-03-03T02:42:50.553504","MEAN_MOTION":1.03852443,"ECCENTRICITY":0.10619683,"INCLINATION":14.263,"RA_OF_ASC_NODE":27.5985,"ARG_OF_PERICENTER":246.4395,"MEAN_ANOMALY":102.118,"EPHEMERIS_TYPE":0,"CLASSIFICATION_TYPE":"U","NORAD_CAT_ID":27786,"ELEMENT_SET_NO":999,"REV_AT_EPOCH":2571,"BSTAR":0,"MEAN_MOTION_DOT":-8.5e-7,"MEAN_MOTION_DDOT":0},{"OBJECT_NAME":"ATLAS AGENA R/B","OBJECT_ID":"1970-069B","EPOCH":"2026-03-01T22:39:52.265088","MEAN_MOTION":1.01705055,"ECCENTRICITY":0.1201201,"INCLINATION":11.5057,"RA_OF_ASC_NODE":137.7494,"ARG_OF_PERICENTER":186.3036,"MEAN_ANOMALY":172.0344,"EPHEMERIS_TYPE":0,"CLASSIFICATION_TYPE":"U","NORAD_CAT_ID":27787,"ELEMENT_SET_NO":999,"REV_AT_EPOCH":2592,"BSTAR":0,"MEAN_MOTION_DOT":2.5e-7,"MEAN_MOTION_DDOT":0},{"OBJECT_NAME":"COSMOS 1261 DEB","OBJECT_ID":"1981-031H","EPOCH":"2026-03-02T20:40:32.463840","MEAN_MOTION":2.01784376,"ECCENTRICITY":0.69474693,"INCLINATION":65.4912,"RA_OF_ASC_NODE":6.2565,"ARG_OF_PERICENTER":18.2956,"MEAN_ANOMALY":357.3446,"EPHEMERIS_TYPE":0,"CLASSIFICATION_TYPE":"U","NORAD_CAT_ID":27796,"ELEMENT_SET_NO":999,"REV_AT_EPOCH":18372,"BSTAR":0,"MEAN_MOTION_DOT":-7.33e-6,"MEAN_MOTION_DDOT":0},{"OBJECT_NAME":"COSMOS 1285 DEB","OBJECT_ID":"1981-071P","EPOCH":"2026-03-01T06:30:54.413568","MEAN_MOTION":1.97646597,"ECCENTRICITY":0.7117719,"INCLINATION":64.3836,"RA_OF_ASC_NODE":79.8366,"ARG_OF_PERICENTER":35.3802,"MEAN_ANOMALY":355.7725,"EPHEMERIS_TYPE":0,"CLASSIFICATION_TYPE":"U","NORAD_CAT_ID":27800,"ELEMENT_SET_NO":999,"REV_AT_EPOCH":19127,"BSTAR":0,"MEAN_MOTION_DOT":-1.47e-6,"MEAN_MOTION_DDOT":0}]
